{
  "norad_id": 64746,
  "name": "STARLINK-34592",
  "history": [
    {
      "epoch": "2026-03-28T09:38:23.187264Z",
      "apogee_km": 476.11505410220434,
      "perigee_km": 473.9214961617399,
      "latitude_deg": 1.7393249238400024e-05,
      "longitude_deg": 111.1487721670132,
      "height_km": 476.0493663715123,
      "semi_major_axis_km": 6853.155275131972,
      "eccentricity": 0.00016004,
      "inclination_deg": 53.158,
      "raan_deg": 81.568,
      "arg_perigee_deg": 96.9995,
      "mean_anomaly_deg": 263.1188,
      "mean_motion_rev_day": 15.30265912
    },
    {
      "epoch": "2026-03-29T04:27:01.722240Z",
      "apogee_km": 476.0619022528008,
      "perigee_km": 474.2773012137086,
      "latitude_deg": -6.289881695389228e-05,
      "longitude_deg": -175.42617836568587,
      "height_km": 476.3219297042802,
      "semi_major_axis_km": 6853.306601733254,
      "eccentricity": 0.0001302,
      "inclination_deg": 53.1585,
      "raan_deg": 77.9262,
      "arg_perigee_deg": 106.5634,
      "mean_anomaly_deg": 253.5509,
      "mean_motion_rev_day": 15.30215228
    },
    {
      "epoch": "2026-03-30T02:23:47.052960Z",
      "apogee_km": 476.35314050743546,
      "perigee_km": 473.858560109923,
      "latitude_deg": -3.712995484396861e-05,
      "longitude_deg": -149.76312375868693,
      "height_km": 476.40139420966807,
      "semi_major_axis_km": 6853.242850308679,
      "eccentricity": 0.000182,
      "inclination_deg": 53.1584,
      "raan_deg": 73.6794,
      "arg_perigee_deg": 108.6209,
      "mean_anomaly_deg": 251.4989,
      "mean_motion_rev_day": 15.3023658
    },
    {
      "epoch": "2026-03-30T05:31:53.535936Z",
      "apogee_km": 476.01896787077476,
      "perigee_km": 474.46654028888133,
      "latitude_deg": -4.909647708050192e-05,
      "longitude_deg": 162.47349969205484,
      "height_km": 476.0105225770311,
      "semi_major_axis_km": 6853.379754079828,
      "eccentricity": 0.00011326,
      "inclination_deg": 53.1589,
      "raan_deg": 73.0718,
      "arg_perigee_deg": 80.3285,
      "mean_anomaly_deg": 279.7843,
      "mean_motion_rev_day": 15.30190728
    },
    {
      "epoch": "2026-03-30T08:39:59.980896Z",
      "apogee_km": 476.14363469711225,
      "perigee_km": 474.33173949733737,
      "latitude_deg": -5.8652335859164926e-06,
      "longitude_deg": 114.71082310222275,
      "height_km": 476.1708468595172,
      "semi_major_axis_km": 6853.3746870972245,
      "eccentricity": 0.00013219,
      "inclination_deg": 53.1587,
      "raan_deg": 72.4647,
      "arg_perigee_deg": 92.2329,
      "mean_anomaly_deg": 267.8823,
      "mean_motion_rev_day": 15.30192425
    },
    {
      "epoch": "2026-03-31T16:01:04.312992Z",
      "apogee_km": 476.1546070242857,
      "perigee_km": 474.17674387215084,
      "latitude_deg": 3.249508660191252e-06,
      "longitude_deg": -2.914967002279052,
      "height_km": 476.10224989190266,
      "semi_major_axis_km": 6853.302675448218,
      "eccentricity": 0.0001443,
      "inclination_deg": 53.1595,
      "raan_deg": 66.3945,
      "arg_perigee_deg": 92.2477,
      "mean_anomaly_deg": 267.8689,
      "mean_motion_rev_day": 15.30216543
    },
    {
      "epoch": "2026-04-01T15:31:52.310208Z",
      "apogee_km": 476.2464740411642,
      "perigee_km": 474.0739788203855,
      "latitude_deg": 5.2389074285520846e-05,
      "longitude_deg": -1.1310757819447192,
      "height_km": 476.04782761650114,
      "semi_major_axis_km": 6853.297226430775,
      "eccentricity": 0.0001585,
      "inclination_deg": 53.1603,
      "raan_deg": 61.844,
      "arg_perigee_deg": 89.469,
      "mean_anomaly_deg": 270.6493,
      "mean_motion_rev_day": 15.30218368
    },
    {
      "epoch": "2026-04-02T21:18:52.555392Z",
      "apogee_km": 476.5350675863956,
      "perigee_km": 473.7170058257025,
      "latitude_deg": -6.146535642175271e-06,
      "longitude_deg": -94.86850077179923,
      "height_km": 476.22008244310285,
      "semi_major_axis_km": 6853.263036706049,
      "eccentricity": 0.0002056,
      "inclination_deg": 53.1603,
      "raan_deg": 56.0808,
      "arg_perigee_deg": 98.0378,
      "mean_anomaly_deg": 262.0856,
      "mean_motion_rev_day": 15.30229819
    },
    {
      "epoch": "2026-04-03T05:09:08.260416Z",
      "apogee_km": 475.8951782423055,
      "perigee_km": 474.3901980227911,
      "latitude_deg": 3.473163957184729e-05,
      "longitude_deg": 145.72780941434084,
      "height_km": 476.04523073129025,
      "semi_major_axis_km": 6853.2796881325485,
      "eccentricity": 0.0001098,
      "inclination_deg": 53.1613,
      "raan_deg": 54.5644,
      "arg_perigee_deg": 90.3114,
      "mean_anomaly_deg": 269.8013,
      "mean_motion_rev_day": 15.30224242
    },
    {
      "epoch": "2026-04-04T06:14:01.929984Z",
      "apogee_km": 476.08374778514826,
      "perigee_km": 474.24021035977785,
      "latitude_deg": 4.479817783885428e-05,
      "longitude_deg": 123.6198297297373,
      "height_km": 476.2808072311255,
      "semi_major_axis_km": 6853.298979072463,
      "eccentricity": 0.0001345,
      "inclination_deg": 53.1611,
      "raan_deg": 49.7101,
      "arg_perigee_deg": 103.8522,
      "mean_anomaly_deg": 256.2629,
      "mean_motion_rev_day": 15.30217781
    },
    {
      "epoch": "2026-04-05T13:35:04.303392Z",
      "apogee_km": 475.9755662236212,
      "perigee_km": 474.43630540023696,
      "latitude_deg": 5.175219649614696e-05,
      "longitude_deg": 6.0045181666547665,
      "height_km": 476.1302833785527,
      "semi_major_axis_km": 6853.342935811928,
      "eccentricity": 0.0001123,
      "inclination_deg": 53.1612,
      "raan_deg": 43.6422,
      "arg_perigee_deg": 91.9322,
      "mean_anomaly_deg": 268.1808,
      "mean_motion_rev_day": 15.30203059
    },
    {
      "epoch": "2026-04-05T13:35:04.304256Z",
      "apogee_km": 475.97590889076673,
      "perigee_km": 474.4359627330905,
      "latitude_deg": 4.714079624670059e-05,
      "longitude_deg": 6.00451112126405,
      "height_km": 476.130294931706,
      "semi_major_axis_km": 6853.342935811928,
      "eccentricity": 0.00011235,
      "inclination_deg": 53.1612,
      "raan_deg": 43.6422,
      "arg_perigee_deg": 91.9322,
      "mean_anomaly_deg": 268.1808,
      "mean_motion_rev_day": 15.30203059
    },
    {
      "epoch": "2026-04-06T05:15:36.035712Z",
      "apogee_km": 476.12147250723046,
      "perigee_km": 474.37673747262215,
      "latitude_deg": -1.3990466789512217e-05,
      "longitude_deg": 127.19518072880024,
      "height_km": 476.361494372705,
      "semi_major_axis_km": 6853.386104989926,
      "eccentricity": 0.00012729,
      "inclination_deg": 53.1604,
      "raan_deg": 40.6089,
      "arg_perigee_deg": 104.2156,
      "mean_anomaly_deg": 255.8986,
      "mean_motion_rev_day": 15.30188601
    },
    {
      "epoch": "2026-04-07T06:20:26.873952Z",
      "apogee_km": 475.8348913762957,
      "perigee_km": 474.5019234745514,
      "latitude_deg": 1.2951788488731305e-05,
      "longitude_deg": 105.101840711152,
      "height_km": 475.96595832595904,
      "semi_major_axis_km": 6853.305407425423,
      "eccentricity": 9.725e-05,
      "inclination_deg": 53.1584,
      "raan_deg": 35.7574,
      "arg_perigee_deg": 81.3033,
      "mean_anomaly_deg": 278.8078,
      "mean_motion_rev_day": 15.30215628
    },
    {
      "epoch": "2026-04-07T20:26:55.562208Z",
      "apogee_km": 476.3268790650882,
      "perigee_km": 474.02690692259876,
      "latitude_deg": -1.836996462987273e-05,
      "longitude_deg": -109.83001244618052,
      "height_km": 476.3791168973848,
      "semi_major_axis_km": 6853.313892993843,
      "eccentricity": 0.0001678,
      "inclination_deg": 53.1603,
      "raan_deg": 33.0245,
      "arg_perigee_deg": 105.3594,
      "mean_anomaly_deg": 254.7592,
      "mean_motion_rev_day": 15.30212786
    },
    {
      "epoch": "2026-04-08T04:17:11.757120Z",
      "apogee_km": 476.0155475676602,
      "perigee_km": 474.4510601946895,
      "latitude_deg": -4.362863008866785e-05,
      "longitude_deg": 130.7650006301138,
      "height_km": 476.0377548682556,
      "semi_major_axis_km": 6853.370303881175,
      "eccentricity": 0.00011414,
      "inclination_deg": 53.1598,
      "raan_deg": 31.5089,
      "arg_perigee_deg": 83.1134,
      "mean_anomaly_deg": 276.9996,
      "mean_motion_rev_day": 15.30193893
    },
    {
      "epoch": "2026-04-09T11:38:15.637344Z",
      "apogee_km": 475.91429580236854,
      "perigee_km": 474.5211458547192,
      "latitude_deg": 2.211967060165187e-05,
      "longitude_deg": 13.144535053085765,
      "height_km": 476.00732927163153,
      "semi_major_axis_km": 6853.354720828544,
      "eccentricity": 0.00010164,
      "inclination_deg": 53.1593,
      "raan_deg": 25.4421,
      "arg_perigee_deg": 81.0182,
      "mean_anomaly_deg": 279.0934,
      "mean_motion_rev_day": 15.30199112
    },
    {
      "epoch": "2026-04-10T04:52:50.621088Z",
      "apogee_km": 475.85907149649574,
      "perigee_km": 474.5055409335182,
      "latitude_deg": 2.70802969537781e-06,
      "longitude_deg": 110.45330606352772,
      "height_km": 476.16712545490634,
      "semi_major_axis_km": 6853.319306215007,
      "eccentricity": 9.875e-05,
      "inclination_deg": 53.159,
      "raan_deg": 22.1048,
      "arg_perigee_deg": 97.3396,
      "mean_anomaly_deg": 262.7717,
      "mean_motion_rev_day": 15.30210973
    },
    {
      "epoch": "2026-04-11T16:56:04.498368Z",
      "apogee_km": 476.0278411077061,
      "perigee_km": 474.40770803899704,
      "latitude_deg": -1.2081328289262331e-05,
      "longitude_deg": -78.8140091571882,
      "height_km": 476.12240023046945,
      "semi_major_axis_km": 6853.354774573351,
      "eccentricity": 0.0001182,
      "inclination_deg": 53.1589,
      "raan_deg": 15.126,
      "arg_perigee_deg": 90.4631,
      "mean_anomaly_deg": 269.6505,
      "mean_motion_rev_day": 15.30199094
    }
  ]
}